{"type": "FeatureCollection", "features": [{"type": "Feature", "properties": {"norad_id": 50032, "name": "COSMOS 1408 DEB", "group": "cosmos-1408-debris", "lat": 81.64243254405952, "lon": -176.1871807093521, "alt_km": 430.51949500470346, "timestamp": "2025-12-04T21:36:16.143460+00:00", "meta": {"OBJECT_NAME": "COSMOS 1408 DEB", "OBJECT_ID": "1982-092RU", "EPOCH": "2025-12-04T13:25:47.517600", "MEAN_MOTION": 15.45566014, "ECCENTRICITY": 0.00147279, "INCLINATION": 82.5655, "RA_OF_ASC_NODE": 66.892, "ARG_OF_PERICENTER": 240.5821, "MEAN_ANOMALY": 119.3958, "EPHEMERIS_TYPE": 0, "CLASSIFICATION_TYPE": "U", "NORAD_CAT_ID": 50032, "ELEMENT_SET_NO": 999, "REV_AT_EPOCH": 22477, "BSTAR": 0.00020793101, "MEAN_MOTION_DOT": 0.00010071, "MEAN_MOTION_DDOT": 0}, "tle": {"line1": "1 50032U 82092RU  25338.55957775  .00010071  00000+0  20793-3 0  9994", "line2": "2 50032  82.5655  66.8920 0014727 240.5821 119.3958 15.45566014224772"}}, "geometry": {"type": "Point", "coordinates": [-176.1871807093521, 81.64243254405952]}}, {"type": "Feature", "properties": {"norad_id": 50058, "name": "COSMOS 1408 DEB", "group": "cosmos-1408-debris", "lat": 34.37251310090606, "lon": -107.54883073901244, "alt_km": 365.2608992427904, "timestamp": "2025-12-04T21:36:16.143480+00:00", "meta": {"OBJECT_NAME": "COSMOS 1408 DEB", "OBJECT_ID": "1982-092SW", "EPOCH": "2025-12-04T07:09:39.475584", "MEAN_MOTION": 15.63350029, "ECCENTRICITY": 0.00162609, "INCLINATION": 82.6139, "RA_OF_ASC_NODE": 78.171, "ARG_OF_PERICENTER": 128.8171, "MEAN_ANOMALY": 231.4543, "EPHEMERIS_TYPE": 0, "CLASSIFICATION_TYPE": "U", "NORAD_CAT_ID": 50058, "ELEMENT_SET_NO": 999, "REV_AT_EPOCH": 22672, "BSTAR": 0.00063988706, "MEAN_MOTION_DOT": 0.00059517, "MEAN_MOTION_DDOT": 0}, "tle": {"line1": "1 50058U 82092SW  25338.29837356  .00059517  00000+0  63989-3 0  9997", "line2": "2 50058  82.6139  78.1710 0016260 128.8171 231.4543 15.63350029226721"}}, "geometry": {"type": "Point", "coordinates": [-107.54883073901244, 34.37251310090606]}}, {"type": "Feature", "properties": {"norad_id": 50404, "name": "COSMOS 1408 DEB", "group": "cosmos-1408-debris", "lat": -65.61525426796955, "lon": 60.63437108048413, "alt_km": 423.11955200474404, "timestamp": "2025-12-04T21:36:16.143494+00:00", "meta": {"OBJECT_NAME": "COSMOS 1408 DEB", "OBJECT_ID": "1982-092ADS", "EPOCH": "2025-12-04T03:02:32.219520", "MEAN_MOTION": 15.11972911, "ECCENTRICITY": 0.01759389, "INCLINATION": 82.207, "RA_OF_ASC_NODE": 223.8385, "ARG_OF_PERICENTER": 228.6918, "MEAN_ANOMALY": 129.9057, "EPHEMERIS_TYPE": 0, "CLASSIFICATION_TYPE": "U", "NORAD_CAT_ID": 50404, "ELEMENT_SET_NO": 999, "REV_AT_EPOCH": 21063, "BSTAR": 0.0052613218, "MEAN_MOTION_DOT": 0.00133611, "MEAN_MOTION_DDOT": 0}, "tle": {"line1": "1 50404U 82092ADS 25338.12676180  .00133611  00000+0  52613-2 0  9999", "line2": "2 50404  82.2070 223.8385 0175938 228.6918 129.9057 15.11972911210636"}}, "geometry": {"type": "Point", "coordinates": [60.63437108048413, -65.61525426796955]}}, {"type": "Feature", "properties": {"norad_id": 50621, "name": "COSMOS 1408 DEB", "group": "cosmos-1408-debris", "lat": 9.671534866097087, "lon": 83.61175916150427, "alt_km": 420.20671441743707, "timestamp": "2025-12-04T21:36:16.143505+00:00", "meta": {"OBJECT_NAME": "COSMOS 1408 DEB", "OBJECT_ID": "1982-092ALR", "EPOCH": "2025-12-04T07:40:18.152256", "MEAN_MOTION": 15.55994248, "ECCENTRICITY": 0.00288655, "INCLINATION": 82.5706, "RA_OF_ASC_NODE": 82.9412, "ARG_OF_PERICENTER": 183.2784, "MEAN_ANOMALY": 176.8286, "EPHEMERIS_TYPE": 0, "CLASSIFICATION_TYPE": "U", "NORAD_CAT_ID": 50621, "ELEMENT_SET_NO": 999, "REV_AT_EPOCH": 22119, "BSTAR": 0.0007370431, "MEAN_MOTION_DOT": 0.00052478, "MEAN_MOTION_DDOT": 0}, "tle": {"line1": "1 50621U 82092ALR 25338.31965454  .00052478  00000+0  73704-3 0  9992", "line2": "2 50621  82.5706  82.9412 0028865 183.2784 176.8286 15.55994248221197"}}, "geometry": {"type": "Point", "coordinates": [83.61175916150427, 9.671534866097087]}}]}